{"fetched_at":"2026-07-12T07:15:59.434Z","source":"https://celestrak.org/NORAD/elements/gp.php?NAME=SPACEMOBILE&FORMAT=JSON","constellation":"ast-spacemobile","records":[{"OBJECT_NAME":"SPACEMOBILE-003","OBJECT_ID":"2024-163A","EPOCH":"2026-07-10T09:58:38.004096","CLASSIFICATION_TYPE":"U","MEAN_MOTION":15.20785714,"ECCENTRICITY":0.00057911,"INCLINATION":52.9615,"RA_OF_ASC_NODE":202.6161,"ARG_OF_PERICENTER":185.1427,"MEAN_ANOMALY":174.9508,"EPHEMERIS_TYPE":0,"NORAD_CAT_ID":61045,"ELEMENT_SET_NO":999,"REV_AT_EPOCH":10130,"BSTAR":0.000010926696,"MEAN_MOTION_DOT":-8.4e-7,"MEAN_MOTION_DDOT":0},{"OBJECT_NAME":"SPACEMOBILE-005","OBJECT_ID":"2024-163B","EPOCH":"2026-07-11T10:49:01.909056","CLASSIFICATION_TYPE":"U","MEAN_MOTION":15.20765383,"ECCENTRICITY":0.00088948,"INCLINATION":52.9788,"RA_OF_ASC_NODE":197.8076,"ARG_OF_PERICENTER":184.8633,"MEAN_ANOMALY":175.2276,"EPHEMERIS_TYPE":0,"NORAD_CAT_ID":61046,"ELEMENT_SET_NO":999,"REV_AT_EPOCH":10145,"BSTAR":0.00015154729,"MEAN_MOTION_DOT":0.00003056,"MEAN_MOTION_DDOT":0},{"OBJECT_NAME":"SPACEMOBILE-001","OBJECT_ID":"2024-163C","EPOCH":"2026-07-10T01:39:25.476768","CLASSIFICATION_TYPE":"U","MEAN_MOTION":15.20815495,"ECCENTRICITY":0.00075534,"INCLINATION":52.9749,"RA_OF_ASC_NODE":203.8741,"ARG_OF_PERICENTER":178.7608,"MEAN_ANOMALY":181.3406,"EPHEMERIS_TYPE":0,"NORAD_CAT_ID":61047,"ELEMENT_SET_NO":999,"REV_AT_EPOCH":10124,"BSTAR":0.000037894656,"MEAN_MOTION_DOT":0.00000518,"MEAN_MOTION_DDOT":0},{"OBJECT_NAME":"SPACEMOBILE-002","OBJECT_ID":"2024-163D","EPOCH":"2026-07-11T00:55:48.887328","CLASSIFICATION_TYPE":"U","MEAN_MOTION":15.20841812,"ECCENTRICITY":0.00066201,"INCLINATION":52.9623,"RA_OF_ASC_NODE":199.4399,"ARG_OF_PERICENTER":180.999,"MEAN_ANOMALY":179.0992,"EPHEMERIS_TYPE":0,"NORAD_CAT_ID":61048,"ELEMENT_SET_NO":999,"REV_AT_EPOCH":10139,"BSTAR":0.00038280824,"MEAN_MOTION_DOT":0.00008243,"MEAN_MOTION_DDOT":0},{"OBJECT_NAME":"SPACEMOBILE-004","OBJECT_ID":"2024-163E","EPOCH":"2026-07-09T13:48:46.986048","CLASSIFICATION_TYPE":"U","MEAN_MOTION":15.20814564,"ECCENTRICITY":0.00081135,"INCLINATION":52.9654,"RA_OF_ASC_NODE":205.9666,"ARG_OF_PERICENTER":207.5207,"MEAN_ANOMALY":152.5359,"EPHEMERIS_TYPE":0,"NORAD_CAT_ID":61049,"ELEMENT_SET_NO":999,"REV_AT_EPOCH":10117,"BSTAR":-0.00061664582,"MEAN_MOTION_DOT":-0.00014088,"MEAN_MOTION_DDOT":0},{"OBJECT_NAME":"SPACEMOBILE-001 DEB","OBJECT_ID":"2024-163F","EPOCH":"2026-07-11T09:41:16.162656","CLASSIFICATION_TYPE":"U","MEAN_MOTION":15.35341282,"ECCENTRICITY":0.00059028,"INCLINATION":52.9917,"RA_OF_ASC_NODE":165.3429,"ARG_OF_PERICENTER":237.9903,"MEAN_ANOMALY":122.0525,"EPHEMERIS_TYPE":0,"NORAD_CAT_ID":62369,"ELEMENT_SET_NO":999,"REV_AT_EPOCH":9022,"BSTAR":0.00019954615,"MEAN_MOTION_DOT":0.00006574,"MEAN_MOTION_DDOT":0},{"OBJECT_NAME":"SPACEMOBILE-002 DEB","OBJECT_ID":"2024-163G","EPOCH":"2026-07-10T22:45:23.979744","CLASSIFICATION_TYPE":"U","MEAN_MOTION":15.43709877,"ECCENTRICITY":0.00045141,"INCLINATION":52.9414,"RA_OF_ASC_NODE":151.8855,"ARG_OF_PERICENTER":272.3236,"MEAN_ANOMALY":87.725,"EPHEMERIS_TYPE":0,"NORAD_CAT_ID":62370,"ELEMENT_SET_NO":999,"REV_AT_EPOCH":10203,"BSTAR":0.00029235647,"MEAN_MOTION_DOT":0.0001301,"MEAN_MOTION_DDOT":0},{"OBJECT_NAME":"SPACEMOBILE-003 DEB","OBJECT_ID":"2024-163H","EPOCH":"2026-07-11T07:12:04.006368","CLASSIFICATION_TYPE":"U","MEAN_MOTION":15.41467427,"ECCENTRICITY":0.00055724,"INCLINATION":52.9681,"RA_OF_ASC_NODE":157.0365,"ARG_OF_PERICENTER":222.3733,"MEAN_ANOMALY":137.684,"EPHEMERIS_TYPE":0,"NORAD_CAT_ID":62371,"ELEMENT_SET_NO":999,"REV_AT_EPOCH":9560,"BSTAR":0.00031401909,"MEAN_MOTION_DOT":0.00012972,"MEAN_MOTION_DDOT":0},{"OBJECT_NAME":"SPACEMOBILE-004 DEB","OBJECT_ID":"2024-163J","EPOCH":"2026-07-11T21:36:39.032928","CLASSIFICATION_TYPE":"U","MEAN_MOTION":15.40701879,"ECCENTRICITY":0.00028056,"INCLINATION":52.9827,"RA_OF_ASC_NODE":153.8168,"ARG_OF_PERICENTER":248.9133,"MEAN_ANOMALY":111.157,"EPHEMERIS_TYPE":0,"NORAD_CAT_ID":62372,"ELEMENT_SET_NO":999,"REV_AT_EPOCH":9876,"BSTAR":0.0002455778,"MEAN_MOTION_DOT":0.0000979,"MEAN_MOTION_DDOT":0},{"OBJECT_NAME":"SPACEMOBILE-005 DEB","OBJECT_ID":"2024-163K","EPOCH":"2026-07-11T07:03:08.989920","CLASSIFICATION_TYPE":"U","MEAN_MOTION":15.34606938,"ECCENTRICITY":0.00058573,"INCLINATION":52.9722,"RA_OF_ASC_NODE":170.7465,"ARG_OF_PERICENTER":215.0982,"MEAN_ANOMALY":144.9633,"EPHEMERIS_TYPE":0,"NORAD_CAT_ID":62373,"ELEMENT_SET_NO":999,"REV_AT_EPOCH":10182,"BSTAR":0.00019761574,"MEAN_MOTION_DOT":0.0000635,"MEAN_MOTION_DDOT":0},{"OBJECT_NAME":"SPACEMOBILE-006","OBJECT_ID":"2025-309A","EPOCH":"2026-07-11T11:01:53.785056","CLASSIFICATION_TYPE":"U","MEAN_MOTION":15.18647644,"ECCENTRICITY":0.00104031,"INCLINATION":52.993,"RA_OF_ASC_NODE":220.4489,"ARG_OF_PERICENTER":203.4538,"MEAN_ANOMALY":156.5982,"EPHEMERIS_TYPE":0,"NORAD_CAT_ID":67232,"ELEMENT_SET_NO":999,"REV_AT_EPOCH":3028,"BSTAR":0.000025640547,"MEAN_MOTION_DOT":0.00000216,"MEAN_MOTION_DDOT":0},{"OBJECT_NAME":"SPACEMOBILE-008","OBJECT_ID":"2026-139A","EPOCH":"2026-07-11T07:42:17.182944","CLASSIFICATION_TYPE":"U","MEAN_MOTION":15.12799068,"ECCENTRICITY":0.00048794,"INCLINATION":52.9941,"RA_OF_ASC_NODE":152.9965,"ARG_OF_PERICENTER":47.3692,"MEAN_ANOMALY":312.771,"EPHEMERIS_TYPE":0,"NORAD_CAT_ID":69589,"ELEMENT_SET_NO":999,"REV_AT_EPOCH":363,"BSTAR":0.000021806253,"MEAN_MOTION_DOT":8.6e-7,"MEAN_MOTION_DDOT":0},{"OBJECT_NAME":"SPACEMOBILE-009","OBJECT_ID":"2026-139B","EPOCH":"2026-07-11T22:00:59.287968","CLASSIFICATION_TYPE":"U","MEAN_MOTION":15.12692794,"ECCENTRICITY":0.0005154,"INCLINATION":52.9934,"RA_OF_ASC_NODE":150.3026,"ARG_OF_PERICENTER":44.366,"MEAN_ANOMALY":315.7743,"EPHEMERIS_TYPE":0,"NORAD_CAT_ID":69590,"ELEMENT_SET_NO":999,"REV_AT_EPOCH":372,"BSTAR":0.000015046768,"MEAN_MOTION_DOT":-3.5e-7,"MEAN_MOTION_DDOT":0},{"OBJECT_NAME":"SPACEMOBILE-010","OBJECT_ID":"2026-139C","EPOCH":"2026-07-11T22:04:56.716032","CLASSIFICATION_TYPE":"U","MEAN_MOTION":15.12523875,"ECCENTRICITY":0.00050618,"INCLINATION":52.9939,"RA_OF_ASC_NODE":150.3223,"ARG_OF_PERICENTER":35.8507,"MEAN_ANOMALY":324.2823,"EPHEMERIS_TYPE":0,"NORAD_CAT_ID":69591,"ELEMENT_SET_NO":999,"REV_AT_EPOCH":373,"BSTAR":0.000014513744,"MEAN_MOTION_DOT":-4.5e-7,"MEAN_MOTION_DDOT":0}]}
